STARLINK-3151           
1 49408U 21104A   25051.57391291  .00001071  00000+0  85363-4 0  9990
2 49408  53.2171 144.5381 0001429  89.0124 271.1032 15.08844362182044
STARLINK-3075           
1 49409U 21104B   25051.52143488 -.00001056  00000+0 -48274-4 0  9994
2 49409  53.2178 144.7411 0001404  84.0261 276.0891 15.08844685182032
STARLINK-3147           
1 49410U 21104C   25051.51503246 -.00000272  00000+0  10110-5 0  9994
2 49410  53.2167 144.7822 0001330  95.3375 264.7769 15.08840507180931
STARLINK-3162           
1 49411U 21104D   25051.50763994 -.00000025  00000+0  16538-4 0  9997
2 49411  53.2179 134.8002 0001501 101.1806 258.9355 15.08837847181075
STARLINK-3157           
1 49413U 21104F   25051.50491595  .00000937  00000+0  76944-4 0  9992
2 49413  53.2172 134.8213 0001616  97.9538 262.1637 15.08835512181072
STARLINK-3146           
1 49414U 21104G   25051.57663540  .00001985  00000+0  14277-3 0  9995
2 49414  53.2163 144.4963 0001145  85.4729 274.6394 15.08842744182044
STARLINK-3159           
1 49415U 21104H   25052.22892226  .00003357  00000+0  22905-3 0  9996
2 49415  53.2167 131.5633 0001467  96.0780 264.0379 15.08820464182267
STARLINK-3133           
1 49416U 21104J   25051.56927609  .00001386  00000+0  10514-3 0  9990
2 49416  53.2172 144.5288 0001470  87.3145 272.8016 15.08839024180946
STARLINK-3154           
1 49417U 21104K   25051.52968301 -.00000181  00000+0  67328-5 0  9991
2 49417  53.2186 134.3602 0001602 100.4880 259.6293 15.08831594182181
STARLINK-3111           
1 49418U 21104L   25051.49935757  .00000299  00000+0  36879-4 0  9992
2 49418  53.2172 144.8455 0001485 104.0151 256.1006 15.08837996182039
STARLINK-3120           
1 49419U 21104M   25051.55455664 -.00000169  00000+0  74498-5 0  9991
2 49419  53.2174 144.5957 0001390 100.7724 259.3424 15.08836690180936
STARLINK-3110           
1 49420U 21104N   25052.22432101  .00003256  00000+0  22258-3 0  9993
2 49420  53.2179 141.5895 0001636  98.4251 261.6927 15.08837456182142
STARLINK-3112           
1 49421U 21104P   25051.52877921 -.00001776  00000+0 -93543-4 0  9992
2 49421  53.2204 144.5135 0001717  97.4053 262.7134 15.08834106182029
STARLINK-3161           
1 49422U 21104Q   25051.52243544 -.00001014  00000+0 -45622-4 0  9991
2 49422  53.2189 145.0498 0001706 112.3677 247.7496 15.08837758182038
STARLINK-3149           
1 49423U 21104R   25051.49202940 -.00000652  00000+0 -22867-4 0  9996
2 49423  53.2181 145.0751 0001490 106.2279 253.8877 15.08825768182010
STARLINK-3135           
1 49424U 21104S   25051.55088557 -.00000412  00000+0 -77993-5 0  9995
2 49424  53.2181 144.6127 0001484  96.2497 263.8665 15.08826513182022
STARLINK-3139           
1 49425U 21104T   25051.53711210 -.00000141  00000+0  92529-5 0  9993
2 49425  53.2160 144.6781 0001450  99.9024 260.2132 15.08838815182023
STARLINK-3114           
1 49426U 21104U   25051.54351989 -.00001364  00000+0 -67641-4 0  9993
2 49426  53.2161 144.6433 0001382  98.4284 261.6865 15.08829701182027
