OBJECT_NAME,OBJECT_ID,EPOCH,MEAN_MOTION,ECCENTRICITY,INCLINATION,RA_OF_ASC_NODE,ARG_OF_PERICENTER,MEAN_ANOMALY,EPHEMERIS_TYPE,CLASSIFICATION_TYPE,NORAD_CAT_ID,ELEMENT_SET_NO,REV_AT_EPOCH,BSTAR,MEAN_MOTION_DOT,MEAN_MOTION_DDOT
STARLINK-3151,2021-104A,2025-02-20T13:46:26.075424,15.08844362,.0001429,53.2171,144.5381,89.0124,271.1032,0,U,49408,999,18204,.85363E-4,.1071E-4,0
STARLINK-3075,2021-104B,2025-02-20T12:30:51.973632,15.08844685,.0001404,53.2178,144.7411,84.0261,276.0891,0,U,49409,999,18203,-.48274E-4,-.1056E-4,0
STARLINK-3147,2021-104C,2025-02-20T12:21:38.804544,15.08840507,.000133,53.2167,144.7822,95.3375,264.7769,0,U,49410,999,18093,.1011E-5,-.272E-5,0
STARLINK-3162,2021-104D,2025-02-20T12:11:00.090816,15.08837847,.0001501,53.2179,134.8002,101.1806,258.9355,0,U,49411,999,18107,.16538E-4,-.25E-6,0
STARLINK-3157,2021-104F,2025-02-20T12:07:04.738080,15.08835512,.0001616,53.2172,134.8213,97.9538,262.1637,0,U,49413,999,18107,.76944E-4,.937E-5,0
STARLINK-3146,2021-104G,2025-02-20T13:50:21.298560,15.08842744,.0001145,53.2163,144.4963,85.4729,274.6394,0,U,49414,999,18204,.14277E-3,.1985E-4,0
STARLINK-3159,2021-104H,2025-02-21T05:29:38.883264,15.08820464,.0001467,53.2167,131.5633,96.0780,264.0379,0,U,49415,999,18226,.22905E-3,.3357E-4,0
STARLINK-3133,2021-104J,2025-02-20T13:39:45.454176,15.08839024,.000147,53.2172,144.5288,87.3145,272.8016,0,U,49416,999,18094,.10514E-3,.1386E-4,0
STARLINK-3154,2021-104K,2025-02-20T12:42:44.612064,15.08831594,.0001602,53.2186,134.3602,100.4880,259.6293,0,U,49417,999,18218,.67328E-5,-.181E-5,0
STARLINK-3111,2021-104L,2025-02-20T11:59:04.494048,15.08837996,.0001485,53.2172,144.8455,104.0151,256.1006,0,U,49418,999,18203,.36879E-4,.299E-5,0
STARLINK-3120,2021-104M,2025-02-20T13:18:33.693696,15.08836690,.000139,53.2174,144.5957,100.7724,259.3424,0,U,49419,999,18093,.74498E-5,-.169E-5,0
STARLINK-3110,2021-104N,2025-02-21T05:23:01.335264,15.08837456,.0001636,53.2179,141.5895,98.4251,261.6927,0,U,49420,999,18214,.22258E-3,.3256E-4,0
STARLINK-3112,2021-104P,2025-02-20T12:41:26.523744,15.08834106,.0001717,53.2204,144.5135,97.4053,262.7134,0,U,49421,999,18202,-.93543E-4,-.1776E-4,0
STARLINK-3161,2021-104Q,2025-02-20T12:32:18.422016,15.08837758,.0001706,53.2189,145.0498,112.3677,247.7496,0,U,49422,999,18203,-.45622E-4,-.1014E-4,0
STARLINK-3149,2021-104R,2025-02-20T11:48:31.340160,15.08825768,.000149,53.2181,145.0751,106.2279,253.8877,0,U,49423,999,18201,-.22867E-4,-.652E-5,0
STARLINK-3135,2021-104S,2025-02-20T13:13:16.513248,15.08826513,.0001484,53.2181,144.6127,96.2497,263.8665,0,U,49424,999,18202,-.77993E-5,-.412E-5,0
STARLINK-3139,2021-104T,2025-02-20T12:53:26.485440,15.08838815,.000145,53.2160,144.6781,99.9024,260.2132,0,U,49425,999,18202,.92529E-5,-.141E-5,0
STARLINK-3114,2021-104U,2025-02-20T13:02:40.118496,15.08829701,.0001382,53.2161,144.6433,98.4284,261.6865,0,U,49426,999,18202,-.67641E-4,-.1364E-4,0
